STARLINK-36228          
1 67096U 25298X   26002.16668980 -.00182509  00000+0 -30233-2 0  9997
2 67096  69.9987 192.2344 0003505 275.2426  33.7453 15.52600621  4203
STARLINK-36222          
1 67097U 25298Y   26002.16668980 -.00191207  00000+0 -31708-2 0  9991
2 67097  69.9987 192.2320 0003341 274.1163  36.7952 15.52602925  4208
STARLINK-36205          
1 67098U 25298Z   26002.16668980 -.01975097  00000+0 -35315-1 0  9997
2 67098  69.9990 192.2297 0003236 276.3813  36.4089 15.52913983  4257
STARLINK-36193          
1 67099U 25298AA  26002.16668980  .00045456  00000+0  10395-2 0  9994
2 67099  69.9989 192.4396 0003199 288.7769 201.9087 15.42591835  4202
STARLINK-36215          
1 67100U 25298AB  26002.16668980 -.00183245  00000+0 -30363-2 0  9995
2 67100  69.9989 192.2224 0003372 273.6924  44.8893 15.52597319  4250
STARLINK-36200          
1 67101U 25298AC  26002.16668980 -.00216027  00000+0 -35882-2 0  9992
2 67101  69.9990 192.2276 0003252 269.2966  45.4147 15.52647606  4258
STARLINK-36255          
1 67102U 25299A   26002.16668980 -.00236632  00000+0 -41309-2 0  9999
2 67102  42.9993 192.4999 0001833 274.3300  31.8623 15.50711505  4097
STARLINK-36256          
1 67103U 25299B   26002.16668980 -.00291428  00000+0 -51232-2 0  9990
2 67103  42.9992 192.4966 0001984 279.9241  28.1924 15.50716005  4096
STARLINK-36258          
1 67104U 25299C   26002.16668980 -.00309769  00000+0 -54596-2 0  9995
2 67104  42.9993 192.4906 0001832 277.4721  32.5573 15.50711455  4093
STARLINK-36261          
1 67105U 25299D   26002.16668980 -.00350431  00000+0 -62070-2 0  9994
2 67105  42.9991 192.4863 0001898 285.1066  26.8346 15.50719108  4091
STARLINK-36259          
1 67106U 25299E   26002.16668980 -.00400736  00000+0 -71217-2 0  9992
2 67106  42.9992 192.4764 0001427 271.2869  44.4550 15.50808887  4094
STARLINK-36196          
1 67107U 25299F   26002.16668980 -.00347051  00000+0 -61464-2 0  9996
2 67107  42.9992 192.4819 0001984 279.6236  34.2342 15.50709901  4097
