CCSDS_OMM_VERS = 2.0
CREATION_DATE  = 
ORIGINATOR     = 

OBJECT_NAME    = STARLINK-36228
OBJECT_ID      = 2025-298X
CENTER_NAME    = EARTH
REF_FRAME      = TEME
TIME_SYSTEM    = UTC
MEAN_ELEMENT_THEORY = SGP/SGP4

EPOCH          = 2026-01-02T04:00:01.998720
MEAN_MOTION    = 15.52600621
ECCENTRICITY   = .0003505
INCLINATION    = 69.9987
RA_OF_ASC_NODE = 192.2344
ARG_OF_PERICENTER = 275.2426
MEAN_ANOMALY   = 33.7453

EPHEMERIS_TYPE = 0
CLASSIFICATION_TYPE = U
NORAD_CAT_ID   = 67096
ELEMENT_SET_NO = 999
REV_AT_EPOCH   = 420
BSTAR          = -.30233E-2
MEAN_MOTION_DOT = -.182509E-2
MEAN_MOTION_DDOT = 0

CCSDS_OMM_VERS = 2.0
CREATION_DATE  = 
ORIGINATOR     = 

OBJECT_NAME    = STARLINK-36222
OBJECT_ID      = 2025-298Y
CENTER_NAME    = EARTH
REF_FRAME      = TEME
TIME_SYSTEM    = UTC
MEAN_ELEMENT_THEORY = SGP/SGP4

EPOCH          = 2026-01-02T04:00:01.998720
MEAN_MOTION    = 15.52602925
ECCENTRICITY   = .0003341
INCLINATION    = 69.9987
RA_OF_ASC_NODE = 192.2320
ARG_OF_PERICENTER = 274.1163
MEAN_ANOMALY   = 36.7952

EPHEMERIS_TYPE = 0
CLASSIFICATION_TYPE = U
NORAD_CAT_ID   = 67097
ELEMENT_SET_NO = 999
REV_AT_EPOCH   = 420
BSTAR          = -.31708E-2
MEAN_MOTION_DOT = -.191207E-2
MEAN_MOTION_DDOT = 0

CCSDS_OMM_VERS = 2.0
CREATION_DATE  = 
ORIGINATOR     = 

OBJECT_NAME    = STARLINK-36205
OBJECT_ID      = 2025-298Z
CENTER_NAME    = EARTH
REF_FRAME      = TEME
TIME_SYSTEM    = UTC
MEAN_ELEMENT_THEORY = SGP/SGP4

EPOCH          = 2026-01-02T04:00:01.998720
MEAN_MOTION    = 15.52913983
ECCENTRICITY   = .0003236
INCLINATION    = 69.9990
RA_OF_ASC_NODE = 192.2297
ARG_OF_PERICENTER = 276.3813
MEAN_ANOMALY   = 36.4089

EPHEMERIS_TYPE = 0
CLASSIFICATION_TYPE = U
NORAD_CAT_ID   = 67098
ELEMENT_SET_NO = 999
REV_AT_EPOCH   = 425
BSTAR          = -.35315E-1
MEAN_MOTION_DOT = -.1975097E-1
MEAN_MOTION_DDOT = 0

CCSDS_OMM_VERS = 2.0
CREATION_DATE  = 
ORIGINATOR     = 

OBJECT_NAME    = STARLINK-36193
OBJECT_ID      = 2025-298AA
CENTER_NAME    = EARTH
REF_FRAME      = TEME
TIME_SYSTEM    = UTC
MEAN_ELEMENT_THEORY = SGP/SGP4

EPOCH          = 2026-01-02T04:00:01.998720
MEAN_MOTION    = 15.42591835
ECCENTRICITY   = .0003199
INCLINATION    = 69.9989
RA_OF_ASC_NODE = 192.4396
ARG_OF_PERICENTER = 288.7769
MEAN_ANOMALY   = 201.9087

EPHEMERIS_TYPE = 0
CLASSIFICATION_TYPE = U
NORAD_CAT_ID   = 67099
ELEMENT_SET_NO = 999
REV_AT_EPOCH   = 420
BSTAR          = .10395E-2
MEAN_MOTION_DOT = .45456E-3
MEAN_MOTION_DDOT = 0

CCSDS_OMM_VERS = 2.0
CREATION_DATE  = 
ORIGINATOR     = 

OBJECT_NAME    = STARLINK-36215
OBJECT_ID      = 2025-298AB
CENTER_NAME    = EARTH
REF_FRAME      = TEME
TIME_SYSTEM    = UTC
MEAN_ELEMENT_THEORY = SGP/SGP4

EPOCH          = 2026-01-02T04:00:01.998720
MEAN_MOTION    = 15.52597319
ECCENTRICITY   = .0003372
INCLINATION    = 69.9989
RA_OF_ASC_NODE = 192.2224
ARG_OF_PERICENTER = 273.6924
MEAN_ANOMALY   = 44.8893

EPHEMERIS_TYPE = 0
CLASSIFICATION_TYPE = U
NORAD_CAT_ID   = 67100
ELEMENT_SET_NO = 999
REV_AT_EPOCH   = 425
BSTAR          = -.30363E-2
MEAN_MOTION_DOT = -.183245E-2
MEAN_MOTION_DDOT = 0

CCSDS_OMM_VERS = 2.0
CREATION_DATE  = 
ORIGINATOR     = 

OBJECT_NAME    = STARLINK-36200
OBJECT_ID      = 2025-298AC
CENTER_NAME    = EARTH
REF_FRAME      = TEME
TIME_SYSTEM    = UTC
MEAN_ELEMENT_THEORY = SGP/SGP4

EPOCH          = 2026-01-02T04:00:01.998720
MEAN_MOTION    = 15.52647606
ECCENTRICITY   = .0003252
INCLINATION    = 69.9990
RA_OF_ASC_NODE = 192.2276
ARG_OF_PERICENTER = 269.2966
MEAN_ANOMALY   = 45.4147

EPHEMERIS_TYPE = 0
CLASSIFICATION_TYPE = U
NORAD_CAT_ID   = 67101
ELEMENT_SET_NO = 999
REV_AT_EPOCH   = 425
BSTAR          = -.35882E-2
MEAN_MOTION_DOT = -.216027E-2
MEAN_MOTION_DDOT = 0

CCSDS_OMM_VERS = 2.0
CREATION_DATE  = 
ORIGINATOR     = 

OBJECT_NAME    = STARLINK-36255
OBJECT_ID      = 2025-299A
CENTER_NAME    = EARTH
REF_FRAME      = TEME
TIME_SYSTEM    = UTC
MEAN_ELEMENT_THEORY = SGP/SGP4

EPOCH          = 2026-01-02T04:00:01.998720
MEAN_MOTION    = 15.50711505
ECCENTRICITY   = .0001833
INCLINATION    = 42.9993
RA_OF_ASC_NODE = 192.4999
ARG_OF_PERICENTER = 274.3300
MEAN_ANOMALY   = 31.8623

EPHEMERIS_TYPE = 0
CLASSIFICATION_TYPE = U
NORAD_CAT_ID   = 67102
ELEMENT_SET_NO = 999
REV_AT_EPOCH   = 409
BSTAR          = -.41309E-2
MEAN_MOTION_DOT = -.236632E-2
MEAN_MOTION_DDOT = 0

CCSDS_OMM_VERS = 2.0
CREATION_DATE  = 
ORIGINATOR     = 

OBJECT_NAME    = STARLINK-36256
OBJECT_ID      = 2025-299B
CENTER_NAME    = EARTH
REF_FRAME      = TEME
TIME_SYSTEM    = UTC
MEAN_ELEMENT_THEORY = SGP/SGP4

EPOCH          = 2026-01-02T04:00:01.998720
MEAN_MOTION    = 15.50716005
ECCENTRICITY   = .0001984
INCLINATION    = 42.9992
RA_OF_ASC_NODE = 192.4966
ARG_OF_PERICENTER = 279.9241
MEAN_ANOMALY   = 28.1924

EPHEMERIS_TYPE = 0
CLASSIFICATION_TYPE = U
NORAD_CAT_ID   = 67103
ELEMENT_SET_NO = 999
REV_AT_EPOCH   = 409
BSTAR          = -.51232E-2
MEAN_MOTION_DOT = -.291428E-2
MEAN_MOTION_DDOT = 0

CCSDS_OMM_VERS = 2.0
CREATION_DATE  = 
ORIGINATOR     = 

OBJECT_NAME    = STARLINK-36258
OBJECT_ID      = 2025-299C
CENTER_NAME    = EARTH
REF_FRAME      = TEME
TIME_SYSTEM    = UTC
MEAN_ELEMENT_THEORY = SGP/SGP4

EPOCH          = 2026-01-02T04:00:01.998720
MEAN_MOTION    = 15.50711455
ECCENTRICITY   = .0001832
INCLINATION    = 42.9993
RA_OF_ASC_NODE = 192.4906
ARG_OF_PERICENTER = 277.4721
MEAN_ANOMALY   = 32.5573

EPHEMERIS_TYPE = 0
CLASSIFICATION_TYPE = U
NORAD_CAT_ID   = 67104
ELEMENT_SET_NO = 999
REV_AT_EPOCH   = 409
BSTAR          = -.54596E-2
MEAN_MOTION_DOT = -.309769E-2
MEAN_MOTION_DDOT = 0

CCSDS_OMM_VERS = 2.0
CREATION_DATE  = 
ORIGINATOR     = 

OBJECT_NAME    = STARLINK-36261
OBJECT_ID      = 2025-299D
CENTER_NAME    = EARTH
REF_FRAME      = TEME
TIME_SYSTEM    = UTC
MEAN_ELEMENT_THEORY = SGP/SGP4

EPOCH          = 2026-01-02T04:00:01.998720
MEAN_MOTION    = 15.50719108
ECCENTRICITY   = .0001898
INCLINATION    = 42.9991
RA_OF_ASC_NODE = 192.4863
ARG_OF_PERICENTER = 285.1066
MEAN_ANOMALY   = 26.8346

EPHEMERIS_TYPE = 0
CLASSIFICATION_TYPE = U
NORAD_CAT_ID   = 67105
ELEMENT_SET_NO = 999
REV_AT_EPOCH   = 409
BSTAR          = -.6207E-2
MEAN_MOTION_DOT = -.350431E-2
MEAN_MOTION_DDOT = 0

CCSDS_OMM_VERS = 2.0
CREATION_DATE  = 
ORIGINATOR     = 

OBJECT_NAME    = STARLINK-36259
OBJECT_ID      = 2025-299E
CENTER_NAME    = EARTH
REF_FRAME      = TEME
TIME_SYSTEM    = UTC
MEAN_ELEMENT_THEORY = SGP/SGP4

EPOCH          = 2026-01-02T04:00:01.998720
MEAN_MOTION    = 15.50808887
ECCENTRICITY   = .0001427
INCLINATION    = 42.9992
RA_OF_ASC_NODE = 192.4764
ARG_OF_PERICENTER = 271.2869
MEAN_ANOMALY   = 44.4550

EPHEMERIS_TYPE = 0
CLASSIFICATION_TYPE = U
NORAD_CAT_ID   = 67106
ELEMENT_SET_NO = 999
REV_AT_EPOCH   = 409
BSTAR          = -.71217E-2
MEAN_MOTION_DOT = -.400736E-2
MEAN_MOTION_DDOT = 0

CCSDS_OMM_VERS = 2.0
CREATION_DATE  = 
ORIGINATOR     = 

OBJECT_NAME    = STARLINK-36196
OBJECT_ID      = 2025-299F
CENTER_NAME    = EARTH
REF_FRAME      = TEME
TIME_SYSTEM    = UTC
MEAN_ELEMENT_THEORY = SGP/SGP4

EPOCH          = 2026-01-02T04:00:01.998720
MEAN_MOTION    = 15.50709901
ECCENTRICITY   = .0001984
INCLINATION    = 42.9992
RA_OF_ASC_NODE = 192.4819
ARG_OF_PERICENTER = 279.6236
MEAN_ANOMALY   = 34.2342

EPHEMERIS_TYPE = 0
CLASSIFICATION_TYPE = U
NORAD_CAT_ID   = 67107
ELEMENT_SET_NO = 999
REV_AT_EPOCH   = 409
BSTAR          = -.61464E-2
MEAN_MOTION_DOT = -.347051E-2
MEAN_MOTION_DDOT = 0

